[{"OBJECT_NAME":"STARLINK-2413","OBJECT_ID":"2021-018AS","EPOCH":"2026-03-10T00:00:02.999808","MEAN_MOTION":15.15615622,"ECCENTRICITY":0.00017801,"INCLINATION":53.0936,"RA_OF_ASC_NODE":240.2652,"ARG_OF_PERICENTER":92.7433,"MEAN_ANOMALY":96.8889,"EPHEMERIS_TYPE":0,"CLASSIFICATION_TYPE":"U","NORAD_CAT_ID":47827,"ELEMENT_SET_NO":999,"REV_AT_EPOCH":579,"BSTAR":0.054547655,"MEAN_MOTION_DOT":0.01139249,"MEAN_MOTION_DDOT":0},{"OBJECT_NAME":"TRANSPORTER-15 OBJECT K","OBJECT_ID":"2025-276K","EPOCH":"2026-03-09T18:17:24.455904","MEAN_MOTION":15.1897842,"ECCENTRICITY":0.00057003,"INCLINATION":97.4243,"RA_OF_ASC_NODE":143.9558,"ARG_OF_PERICENTER":6.9635,"MEAN_ANOMALY":353.1678,"EPHEMERIS_TYPE":0,"CLASSIFICATION_TYPE":"U","NORAD_CAT_ID":66675,"ELEMENT_SET_NO":999,"REV_AT_EPOCH":1532,"BSTAR":0.00057838565,"MEAN_MOTION_DOT":0.00012043,"MEAN_MOTION_DDOT":0}]
